{
  "type": "FeatureCollection",
  "features": [
    {
      "type": "Feature",
      "properties": {
        "norad_id": 36186,
        "name": "FENGYUN 1C DEB",
        "group": "fengyun-1c-debris",
        "lat": 24.657463630833867,
        "lon": -161.83566005115998,
        "alt_km": 530.685941300072,
        "timestamp": "2025-12-06T03:35:02.159606+00:00",
        "meta_object_name": "FENGYUN 1C DEB",
        "meta_object_id": "1999-025DTK",
        "meta_epoch": "2025-12-03T21:23:39.902784",
        "meta_mean_motion": 15.07583172,
        "meta_eccentricity": 0.0016109,
        "meta_inclination": 98.9885,
        "meta_ra_of_asc_node": 199.6931,
        "meta_arg_of_pericenter": 352.9486,
        "meta_mean_anomaly": 20.1863,
        "meta_ephemeris_type": 0,
        "meta_classification_type": "U",
        "meta_norad_cat_id": 36186,
        "meta_element_set_no": 999,
        "meta_rev_at_epoch": 61437,
        "meta_bstar": 0.017581,
        "meta_mean_motion_dot": 0.00278518,
        "meta_mean_motion_ddot": 0,
        "tle_line1": "1 36186U 99025DTK 25337.89143406  .00278518  00000+0  17581-1 0  9997",
        "tle_line2": "2 36186  98.9885 199.6931 0016109 352.9486  20.1863 15.07583172614375"
      },
      "geometry": {
        "type": "Point",
        "coordinates": [
          -161.83566005115998,
          24.657463630833867
        ]
      }
    },
    {
      "type": "Feature",
      "properties": {
        "norad_id": 36188,
        "name": "FENGYUN 1C DEB",
        "group": "fengyun-1c-debris",
        "lat": -33.09416024154056,
        "lon": 85.98240570641927,
        "alt_km": 664.5900405339871,
        "timestamp": "2025-12-06T03:35:02.159616+00:00",
        "meta_object_name": "FENGYUN 1C DEB",
        "meta_object_id": "1999-025DTM",
        "meta_epoch": "2025-12-01T05:20:13.473024",
        "meta_mean_motion": 14.6025584,
        "meta_eccentricity": 0.0047349,
        "meta_inclination": 98.5854,
        "meta_ra_of_asc_node": 75.2295,
        "meta_arg_of_pericenter": 340.7793,
        "meta_mean_anomaly": 19.1618,
        "meta_ephemeris_type": 0,
        "meta_classification_type": "U",
        "meta_norad_cat_id": 36188,
        "meta_element_set_no": 999,
        "meta_rev_at_epoch": 87884,
        "meta_bstar": 0.002895,
        "meta_mean_motion_dot": 0.00014165,
        "meta_mean_motion_ddot": 0,
        "tle_line1": "1 36188U 99025DTM 25335.22237816  .00014165  00000+0  28950-2 0  9992",
        "tle_line2": "2 36188  98.5854  75.2295 0047349 340.7793  19.1618 14.60255840878843"
      },
      "geometry": {
        "type": "Point",
        "coordinates": [
          85.98240570641927,
          -33.09416024154056
        ]
      }
    },
    {
      "type": "Feature",
      "properties": {
        "norad_id": 36198,
        "name": "FENGYUN 1C DEB",
        "group": "fengyun-1c-debris",
        "lat": -37.86211958494948,
        "lon": -176.98489399487084,
        "alt_km": 865.6184209060912,
        "timestamp": "2025-12-06T03:35:02.159626+00:00",
        "meta_object_name": "FENGYUN 1C DEB",
        "meta_object_id": "1999-025DTX",
        "meta_epoch": "2025-12-04T13:02:02.351328",
        "meta_mean_motion": 14.07837759,
        "meta_eccentricity": 0.0097111,
        "meta_inclination": 98.6237,
        "meta_ra_of_asc_node": 8.2561,
        "meta_arg_of_pericenter": 138.3531,
        "meta_mean_anomaly": 222.5087,
        "meta_ephemeris_type": 0,
        "meta_classification_type": "U",
        "meta_norad_cat_id": 36198,
        "meta_element_set_no": 999,
        "meta_rev_at_epoch": 63472,
        "meta_bstar": 0.0026916,
        "meta_mean_motion_dot": 4.726e-05,
        "meta_mean_motion_ddot": 0,
        "tle_line1": "1 36198U 99025DTX 25338.54308277  .00004726  00000+0  26916-2 0  9993",
        "tle_line2": "2 36198  98.6237   8.2561 0097111 138.3531 222.5087 14.07837759634728"
      },
      "geometry": {
        "type": "Point",
        "coordinates": [
          -176.98489399487084,
          -37.86211958494948
        ]
      }
    },
    {
      "type": "Feature",
      "properties": {
        "norad_id": 36199,
        "name": "FENGYUN 1C DEB",
        "group": "fengyun-1c-debris",
        "lat": -81.43341256785648,
        "lon": 77.05364720580909,
        "alt_km": 866.8188952997116,
        "timestamp": "2025-12-06T03:35:02.159637+00:00",
        "meta_object_name": "FENGYUN 1C DEB",
        "meta_object_id": "1999-025DTY",
        "meta_epoch": "2025-12-03T20:34:05.424672",
        "meta_mean_motion": 14.29630765,
        "meta_eccentricity": 0.0093185,
        "meta_inclination": 98.2904,
        "meta_ra_of_asc_node": 359.4233,
        "meta_arg_of_pericenter": 93.4986,
        "meta_mean_anomaly": 267.6861,
        "meta_ephemeris_type": 0,
        "meta_classification_type": "U",
        "meta_norad_cat_id": 36199,
        "meta_element_set_no": 999,
        "meta_rev_at_epoch": 64853,
        "meta_bstar": 0.00046153,
        "meta_mean_motion_dot": 1.199e-05,
        "meta_mean_motion_ddot": 0,
        "tle_line1": "1 36199U 99025DTY 25337.85700723  .00001199  00000+0  46153-3 0  9996",
        "tle_line2": "2 36199  98.2904 359.4233 0093185  93.4986 267.6861 14.29630765648531"
      },
      "geometry": {
        "type": "Point",
        "coordinates": [
          77.05364720580909,
          -81.43341256785648
        ]
      }
    },
    {
      "type": "Feature",
      "properties": {
        "norad_id": 36200,
        "name": "FENGYUN 1C DEB",
        "group": "fengyun-1c-debris",
        "lat": 79.6243413357988,
        "lon": -62.10793778872685,
        "alt_km": 681.3285445400015,
        "timestamp": "2025-12-06T03:35:02.159648+00:00",
        "meta_object_name": "FENGYUN 1C DEB",
        "meta_object_id": "1999-025DTZ",
        "meta_epoch": "2025-12-03T10:55:39.061344",
        "meta_mean_motion": 14.58084214,
        "meta_eccentricity": 0.00335627,
        "meta_inclination": 99.3879,
        "meta_ra_of_asc_node": 50.2216,
        "meta_arg_of_pericenter": 37.7962,
        "meta_mean_anomaly": 322.5582,
        "meta_ephemeris_type": 0,
        "meta_classification_type": "U",
        "meta_norad_cat_id": 36200,
        "meta_element_set_no": 999,
        "meta_rev_at_epoch": 73225,
        "meta_bstar": 0.0051485049,
        "meta_mean_motion_dot": 0.00023905,
        "meta_mean_motion_ddot": 0,
        "tle_line1": "1 36200U 99025DTZ 25337.45531321  .00023905  00000+0  51485-2 0  9993",
        "tle_line2": "2 36200  99.3879  50.2216 0033562  37.7962 322.5582 14.58084214732250"
      },
      "geometry": {
        "type": "Point",
        "coordinates": [
          -62.10793778872685,
          79.6243413357988
        ]
      }
    },
    {
      "type": "Feature",
      "properties": {
        "norad_id": 36203,
        "name": "FENGYUN 1C DEB",
        "group": "fengyun-1c-debris",
        "lat": -43.531167514238966,
        "lon": -68.1712689009457,
        "alt_km": 690.038501679971,
        "timestamp": "2025-12-06T03:35:02.159659+00:00",
        "meta_object_name": "FENGYUN 1C DEB",
        "meta_object_id": "1999-025DUC",
        "meta_epoch": "2025-12-02T02:18:32.511168",
        "meta_mean_motion": 14.78101467,
        "meta_eccentricity": 0.00828267,
        "meta_inclination": 99.0947,
        "meta_ra_of_asc_node": 278.5034,
        "meta_arg_of_pericenter": 181.911,
        "meta_mean_anomaly": 178.1793,
        "meta_ephemeris_type": 0,
        "meta_classification_type": "U",
        "meta_norad_cat_id": 36203,
        "meta_element_set_no": 999,
        "meta_rev_at_epoch": 63272,
        "meta_bstar": 0.0013137928,
        "meta_mean_motion_dot": 0.00010006,
        "meta_mean_motion_ddot": 0,
        "tle_line1": "1 36203U 99025DUC 25336.09620962  .00010006  00000+0  13138-2 0  9996",
        "tle_line2": "2 36203  99.0947 278.5034 0082826 181.9110 178.1793 14.78101467632725"
      },
      "geometry": {
        "type": "Point",
        "coordinates": [
          -68.1712689009457,
          -43.531167514238966
        ]
      }
    },
    {
      "type": "Feature",
      "properties": {
        "norad_id": 36204,
        "name": "FENGYUN 1C DEB",
        "group": "fengyun-1c-debris",
        "lat": 43.96057623061206,
        "lon": 67.6504327188319,
        "alt_km": 783.1319506321324,
        "timestamp": "2025-12-06T03:35:02.159670+00:00",
        "meta_object_name": "FENGYUN 1C DEB",
        "meta_object_id": "1999-025DUD",
        "meta_epoch": "2025-12-04T12:52:24.876192",
        "meta_mean_motion": 14.34488584,
        "meta_eccentricity": 0.0020013,
        "meta_inclination": 99.2915,
        "meta_ra_of_asc_node": 75.0011,
        "meta_arg_of_pericenter": 185.0266,
        "meta_mean_anomaly": 175.0719,
        "meta_ephemeris_type": 0,
        "meta_classification_type": "U",
        "meta_norad_cat_id": 36204,
        "meta_element_set_no": 999,
        "meta_rev_at_epoch": 94310,
        "meta_bstar": 0.0030031,
        "meta_mean_motion_dot": 8.445e-05,
        "meta_mean_motion_ddot": 0,
        "tle_line1": "1 36204U 99025DUD 25338.53639903  .00008445  00000+0  30031-2 0  9998",
        "tle_line2": "2 36204  99.2915  75.0011 0020013 185.0266 175.0719 14.34488584943106"
      },
      "geometry": {
        "type": "Point",
        "coordinates": [
          67.6504327188319,
          43.96057623061206
        ]
      }
    }
  ]
}